{
  "type": "FeatureCollection",
  "features": [
    {
      "type": "Feature",
      "properties": {
        "norad_id": 30565,
        "name": "FENGYUN 1C DEB",
        "group": "fengyun-1c-debris",
        "lat": 80.55769438908173,
        "lon": 114.53022506834073,
        "alt_km": 931.0028556543648,
        "timestamp": "2025-12-27T19:21:59.027019+00:00",
        "meta_object_name": "FENGYUN 1C DEB",
        "meta_object_id": "1999-025ALF",
        "meta_epoch": "2025-12-26T14:06:30.163104",
        "meta_mean_motion": 14.10029395,
        "meta_eccentricity": 0.0142529,
        "meta_inclination": 98.4526,
        "meta_ra_of_asc_node": 229.9885,
        "meta_arg_of_pericenter": 317.025,
        "meta_mean_anomaly": 71.3981,
        "meta_ephemeris_type": 0,
        "meta_classification_type": "U",
        "meta_norad_cat_id": 30565,
        "meta_element_set_no": 999,
        "meta_rev_at_epoch": 96122,
        "meta_bstar": 0.0019542,
        "meta_mean_motion_dot": 3.75e-05,
        "meta_mean_motion_ddot": 0,
        "tle_line1": "1 30565U 99025ALF 25360.58784911  .00003750  00000+0  19542-2 0  9990",
        "tle_line2": "2 30565  98.4526 229.9885 0142529 317.0250  71.3981 14.10029395961222"
      },
      "geometry": {
        "type": "Point",
        "coordinates": [
          114.53022506834073,
          80.55769438908173
        ]
      }
    },
    {
      "type": "Feature",
      "properties": {
        "norad_id": 30566,
        "name": "FENGYUN 1C DEB",
        "group": "fengyun-1c-debris",
        "lat": 50.90523343928807,
        "lon": -117.72372162028313,
        "alt_km": 800.3442937554928,
        "timestamp": "2025-12-27T19:21:59.027028+00:00",
        "meta_object_name": "FENGYUN 1C DEB",
        "meta_object_id": "1999-025ALG",
        "meta_epoch": "2025-12-26T09:05:12.083712",
        "meta_mean_motion": 14.11750619,
        "meta_eccentricity": 0.00683669,
        "meta_inclination": 99.2155,
        "meta_ra_of_asc_node": 49.2843,
        "meta_arg_of_pericenter": 144.7208,
        "meta_mean_anomaly": 288.3615,
        "meta_ephemeris_type": 0,
        "meta_classification_type": "U",
        "meta_norad_cat_id": 30566,
        "meta_element_set_no": 999,
        "meta_rev_at_epoch": 96575,
        "meta_bstar": 0.0015274237,
        "meta_mean_motion_dot": 2.799e-05,
        "meta_mean_motion_ddot": 0,
        "tle_line1": "1 30566U 99025ALG 25360.37861208  .00002799  00000+0  15274-2 0  9993",
        "tle_line2": "2 30566  99.2155  49.2843 0068366 144.7208 288.3615 14.11750619965758"
      },
      "geometry": {
        "type": "Point",
        "coordinates": [
          -117.72372162028313,
          50.90523343928807
        ]
      }
    },
    {
      "type": "Feature",
      "properties": {
        "norad_id": 30567,
        "name": "FENGYUN 1C DEB",
        "group": "fengyun-1c-debris",
        "lat": -65.4342644154392,
        "lon": 11.85187173240547,
        "alt_km": 935.9486295517972,
        "timestamp": "2025-12-27T19:21:59.027037+00:00",
        "meta_object_name": "FENGYUN 1C DEB",
        "meta_object_id": "1999-025ALH",
        "meta_epoch": "2025-12-27T11:46:30.121824",
        "meta_mean_motion": 14.08912772,
        "meta_eccentricity": 0.010945,
        "meta_inclination": 98.7766,
        "meta_ra_of_asc_node": 351.791,
        "meta_arg_of_pericenter": 147.6993,
        "meta_mean_anomaly": 341.2409,
        "meta_ephemeris_type": 0,
        "meta_classification_type": "U",
        "meta_norad_cat_id": 30567,
        "meta_element_set_no": 999,
        "meta_rev_at_epoch": 96981,
        "meta_bstar": 0.00029992,
        "meta_mean_motion_dot": 5.06e-06,
        "meta_mean_motion_ddot": 0,
        "tle_line1": "1 30567U 99025ALH 25361.49062641  .00000506  00000+0  29992-3 0  9999",
        "tle_line2": "2 30567  98.7766 351.7910 0109450 147.6993 341.2409 14.08912772969817"
      },
      "geometry": {
        "type": "Point",
        "coordinates": [
          11.85187173240547,
          -65.4342644154392
        ]
      }
    },
    {
      "type": "Feature",
      "properties": {
        "norad_id": 30568,
        "name": "FENGYUN 1C DEB",
        "group": "fengyun-1c-debris",
        "lat": 7.678879099172651,
        "lon": -5.736727270868231,
        "alt_km": 699.2466572134954,
        "timestamp": "2025-12-27T19:21:59.027046+00:00",
        "meta_object_name": "FENGYUN 1C DEB",
        "meta_object_id": "1999-025ALJ",
        "meta_epoch": "2025-12-27T10:27:48.508704",
        "meta_mean_motion": 14.55558693,
        "meta_eccentricity": 0.0015607,
        "meta_inclination": 98.9426,
        "meta_ra_of_asc_node": 172.6498,
        "meta_arg_of_pericenter": 149.9889,
        "meta_mean_anomaly": 239.3569,
        "meta_ephemeris_type": 0,
        "meta_classification_type": "U",
        "meta_norad_cat_id": 30568,
        "meta_element_set_no": 999,
        "meta_rev_at_epoch": 97873,
        "meta_bstar": 0.0037765,
        "meta_mean_motion_dot": 0.00016473,
        "meta_mean_motion_ddot": 0,
        "tle_line1": "1 30568U 99025ALJ 25361.43597811  .00016473  00000+0  37765-2 0  9992",
        "tle_line2": "2 30568  98.9426 172.6498 0015607 149.9889 239.3569 14.55558693978738"
      },
      "geometry": {
        "type": "Point",
        "coordinates": [
          -5.736727270868231,
          7.678879099172651
        ]
      }
    },
    {
      "type": "Feature",
      "properties": {
        "norad_id": 30569,
        "name": "FENGYUN 1C DEB",
        "group": "fengyun-1c-debris",
        "lat": 68.18271875795361,
        "lon": -15.463197896444099,
        "alt_km": 639.8092493642371,
        "timestamp": "2025-12-27T19:21:59.027056+00:00",
        "meta_object_name": "FENGYUN 1C DEB",
        "meta_object_id": "1999-025ALK",
        "meta_epoch": "2025-12-26T21:41:40.570656",
        "meta_mean_motion": 14.74285318,
        "meta_eccentricity": 0.0005977,
        "meta_inclination": 98.7372,
        "meta_ra_of_asc_node": 140.9721,
        "meta_arg_of_pericenter": 33.87,
        "meta_mean_anomaly": 326.2886,
        "meta_ephemeris_type": 0,
        "meta_classification_type": "U",
        "meta_norad_cat_id": 30569,
        "meta_element_set_no": 999,
        "meta_rev_at_epoch": 98415,
        "meta_bstar": 0.0041241,
        "meta_mean_motion_dot": 0.00027341,
        "meta_mean_motion_ddot": 0,
        "tle_line1": "1 30569U 99025ALK 25360.90394179  .00027341  00000+0  41241-2 0  9996",
        "tle_line2": "2 30569  98.7372 140.9721 0005977  33.8700 326.2886 14.74285318984159"
      },
      "geometry": {
        "type": "Point",
        "coordinates": [
          -15.463197896444099,
          68.18271875795361
        ]
      }
    },
    {
      "type": "Feature",
      "properties": {
        "norad_id": 30570,
        "name": "FENGYUN 1C DEB",
        "group": "fengyun-1c-debris",
        "lat": -9.07865539199777,
        "lon": 35.36209792699292,
        "alt_km": 874.6134158443901,
        "timestamp": "2025-12-27T19:21:59.027065+00:00",
        "meta_object_name": "FENGYUN 1C DEB",
        "meta_object_id": "1999-025ALL",
        "meta_epoch": "2025-12-27T00:49:34.892832",
        "meta_mean_motion": 14.14294603,
        "meta_eccentricity": 0.00358617,
        "meta_inclination": 98.7138,
        "meta_ra_of_asc_node": 33.2044,
        "meta_arg_of_pericenter": 171.3833,
        "meta_mean_anomaly": 208.6018,
        "meta_ephemeris_type": 0,
        "meta_classification_type": "U",
        "meta_norad_cat_id": 30570,
        "meta_element_set_no": 999,
        "meta_rev_at_epoch": 97200,
        "meta_bstar": 0.00052458915,
        "meta_mean_motion_dot": 9.65e-06,
        "meta_mean_motion_ddot": 0,
        "tle_line1": "1 30570U 99025ALL 25361.03443163  .00000965  00000+0  52459-3 0  9998",
        "tle_line2": "2 30570  98.7138  33.2044 0035861 171.3833 208.6018 14.14294603972005"
      },
      "geometry": {
        "type": "Point",
        "coordinates": [
          35.36209792699292,
          -9.07865539199777
        ]
      }
    },
    {
      "type": "Feature",
      "properties": {
        "norad_id": 30571,
        "name": "FENGYUN 1C DEB",
        "group": "fengyun-1c-debris",
        "lat": 80.67883377841115,
        "lon": -82.99221821792734,
        "alt_km": 851.4082442149866,
        "timestamp": "2025-12-27T19:21:59.027074+00:00",
        "meta_object_name": "FENGYUN 1C DEB",
        "meta_object_id": "1999-025ALM",
        "meta_epoch": "2025-12-27T00:30:00.911232",
        "meta_mean_motion": 14.10709244,
        "meta_eccentricity": 0.00213844,
        "meta_inclination": 98.7302,
        "meta_ra_of_asc_node": 26.8271,
        "meta_arg_of_pericenter": 192.6832,
        "meta_mean_anomaly": 230.8491,
        "meta_ephemeris_type": 0,
        "meta_classification_type": "U",
        "meta_norad_cat_id": 30571,
        "meta_element_set_no": 999,
        "meta_rev_at_epoch": 97088,
        "meta_bstar": 0.00032124789,
        "meta_mean_motion_dot": 5.33e-06,
        "meta_mean_motion_ddot": 0,
        "tle_line1": "1 30571U 99025ALM 25361.02084388  .00000533  00000+0  32125-3 0  9997",
        "tle_line2": "2 30571  98.7302  26.8271 0021384 192.6832 230.8491 14.10709244970883"
      },
      "geometry": {
        "type": "Point",
        "coordinates": [
          -82.99221821792734,
          80.67883377841115
        ]
      }
    }
  ]
}